#aV2012  4  1  0  0  0.00000000     288 DD+AD WGS84 FIT  NGA
## 1682      0.00000000   300.00000000 56018 0.0000000000000
+   31     1  2  3  4  5  6  7  8  9 10 11 12 13 14 15 16 17
+         18 19 20 21 22 23 25 26 27 28 29 30 31 32  0  0  0
+          0  0  0  0  0  0  0  0  0  0  0  0  0  0  0  0  0
+          0  0  0  0  0  0  0  0  0  0  0  0  0  0  0  0  0
+          0  0  0  0  0  0  0  0  0  0  0  0  0  0  0  0  0
++         2  2  2  2  2  2  2  2  2  2  2  2  2  2  2  2  2
++         2  2  2  2  2  2  2  2  2  2  2  2  2  2  2  0  0
++         0  0  0  0  0  0  0  0  0  0  0  0  0  0  0  0  0
++         0  0  0  0  0  0  0  0  0  0  0  0  0  0  0  0  0
++         0  0  0  0  0  0  0  0  0  0  0  0  0  0  0  0  0
%c cc cc ccc ccc cccc cccc cccc cccc ccccc ccccc ccccc ccccc
%c cc cc ccc ccc cccc cccc cccc cccc ccccc ccccc ccccc ccccc
%f  0.0000000  0.000000000  0.00000000000  0.000000000000000
%f  0.0000000  0.000000000  0.00000000000  0.000000000000000
%i    0    0    0    0      0      0      0      0         0
%i    0    0    0    0      0      0      0      0         0
/*      NGA, ST. LOUIS,MO.                                  
/*   EPHEMERIS COMPUTED FROM  1 DAYS OF DATA
/*   EPOCHA SMOOTHER  
/* CCCCCCCCCCCCCCCCCCCCCCCCCCCCCCCCCCCCCCCCCCCCCCCCCCCCCCCCC
*  2012  4  1 18 50  0.00000000                                                 
P  1 -17383.033153  -4052.328953  19665.936300    242.319737                    
V  1 -10065.260482 -22902.156179 -13584.759427      0.055824                    
P  2  13549.186087  23064.898379  -2062.905851    385.066476                    
V  2  -1473.547215   3820.534000  30795.748793      0.014252                    
P  3 -17204.468040 -11656.009142 -17156.837308     30.353090                    
V  3  20717.569724  -3382.281626 -18713.050554      0.050000                    
P  4   5513.085656  24462.320637   7998.099667    140.605583                    
V  4  -7911.326645  -7932.412268  29150.652146      0.113397                    
P  5   8663.675992  13886.414560 -20918.962639   -300.291914                    
V  5 -15446.004017  21630.657876   8093.111287     -0.041754                    
P  6 -13105.397867 -13742.577834 -18551.632614     31.607231                    
V  6  23820.380138  -1418.047211 -15377.010431     -0.005215                    
P  7 -11289.610400  10364.597335 -21642.103661     69.104674                    
V  7 -12259.464349 -24641.796486  -5641.206674      0.030951                    
P  8  -3230.133130  20634.110693 -15985.489419      0.937027                    
V  8  -8672.702686 -18723.551874 -22878.107310      0.000556                    
P  9  17436.347871   8818.131789  17424.025133    148.594252                    
V  9   9216.096704  21325.563786 -19437.127421      0.026008                    
P 10  -6934.663919  23243.782308 -10591.633247    -34.094590                    
V 10 -10129.348768   9083.284046  27600.791475     -0.012233                    
P 11 -21566.149841  -8464.221752  12882.157431   -247.333802                    
V 11  -8494.903884 -15272.934375 -23244.656293     -0.036325                    
P 12  17713.739581  -2298.822238  19591.921645     61.132931                    
V 12 -13395.604369  21005.563677  14763.050444      0.021009                    
P 13 -21283.195259   6490.717757 -14717.006847    216.005463                    
V 13 -17902.922400  -4257.619175  24166.576927     -0.022741                    
P 14   3373.778053 -14556.645968  22125.998763    198.872561                    
V 14  27367.743370   3779.296373  -1835.540821      0.011511                    
P 15  26330.470927   3225.093663  -2832.839849    -91.610566                    
V 15  -3704.671160   2919.893073 -31010.736433      0.001929                    
P 16  -7346.867085 -14077.612074 -21218.605931   -229.718583                    
V 16  16514.279289 -21352.959590   8750.357118     -0.014646                    
P 17  -6003.855797  14495.058860  21576.599845    138.738614                    
V 17 -26820.663757  -3289.931250  -5528.099024     -0.025331                    
P 18  17103.351059 -19555.749607  -4134.089897    188.955792                    
V 18    109.068365   7049.819624 -30695.182647      0.017973                    
P 19 -25132.349132  -7615.230463  -5223.900961   -251.356717                    
V 19   6813.262657  -1410.003477 -30566.589449     -0.037682                    
P 20 -19078.154557   7393.398676  16738.766496     63.248018                    
V 20   9206.170806 -19779.427317  19112.474206     -0.000685                    
P 21   8911.241435 -14844.914816 -19509.389897   -214.497195                    
V 21  12967.978938  22708.806571 -11672.327260     -0.024784                    
P 22   7782.536715 -23619.656507   9331.592616    143.210387                    
V 22   9538.245589  -7639.900606 -27938.577043      0.002468                    
P 23 -26391.735616    906.051217  -4295.107961    218.799205                    
V 23  -5219.318732  -2893.257312  30892.930725     -0.035539                    
P 25  18756.699075 -15616.346070  10381.177012     32.653116                    
V 25  -5287.580630  12350.215212  28114.523463      0.002839                    
P 26  18180.199533  13025.461726 -15236.387658   -241.774662                    
V 26 -18020.358778  -1629.709073 -23508.690814     -0.546828                    
P 27  18267.101030  14571.309157  13687.174421    372.921201                    
V 27   6627.582348  14754.452972 -25277.955527      0.040725                    
P 28 -10490.856462  23126.768738   7928.853223    128.831707                    
V 28  -7330.183297   6217.167860 -30140.800321      0.040992                    
P 29  22836.196728  -5937.891092 -12080.209671    299.291957                    
V 29  15111.353024   4022.624926  26480.488766      0.034885                    
P 30  -1159.313773 -21520.619765 -15871.696188   -110.712506                    
V 30  10831.364794 -16348.582425  21875.083743     -0.180064                    
P 31  -5761.551651 -24622.862194   7892.139731    226.313183                    
V 31   6156.215953   7933.967329  30221.582385      0.043395                    
P 32 -16571.042995  -2872.443841  20667.497577   -427.583320                    
V 32  15333.344667 -20904.558763   9954.845516     -0.045841                    
EOF
